IRIDIUM 112             
1 41925U 17003J   25357.17733844 -.00000003  00000+0 -79624-5 0  9998
2 41925  86.3992 161.8545 0001784  92.8598 267.2802 14.34217516468044
IRIDIUM 111             
1 41926U 17003K   25357.16465401  .00000043  00000+0  82865-5 0  9992
2 41926  86.3988 161.9263 0002020  94.9673 265.1754 14.34218176468023
IRIDIUM 113             
1 42803U 17039A   25356.65624027 -.00000017  00000+0 -13167-4 0  9991
2 42803  86.3964  35.9494 0001887  95.7177 264.4234 14.34217480445887
IRIDIUM 123             
1 42804U 17039B   25357.11633046  .00000269  00000+0  88936-4 0  9998
2 42804  86.3960  67.2414 0002242 103.6399 256.5047 14.34218062444717
IRIDIUM 120             
1 42805U 17039C   25357.20804253  .00000182  00000+0  58090-4 0  9991
2 42805  86.3950  35.5241 0002524  92.6994 267.4491 14.34219848445958
IRIDIUM 115             
1 42806U 17039D   25357.08758182  .00000358  00000+0  10031-3 0  9994
2 42806  86.4489  35.6791 0002710 101.0938 259.0567 14.43281263448862
IRIDIUM 118             
1 42807U 17039E   25357.21781170  .00000296  00000+0  98454-4 0  9990
2 42807  86.3959  67.1978 0002045  97.9807 262.1621 14.34219177444722
IRIDIUM 117             
1 42808U 17039F   25357.16707071  .00000271  00000+0  89668-4 0  9993
2 42808  86.3958  67.1783 0002158 101.7987 258.3451 14.34218442444748
